{
    "links": {
        "self": "http://www.neowsapp.com/rest/v1/neo/3546697?api_key=iIulBulltgU6a56xZRHN4H3l9WmuAYTsLGpBGhQ2"
    },
    "id": "3546697",
    "neo_reference_id": "3546697",
    "name": "(2010 RB130)",
    "designation": "2010 RB130",
    "nasa_jpl_url": "http://ssd.jpl.nasa.gov/sbdb.cgi?sstr=3546697",
    "absolute_magnitude_h": 24.3,
    "estimated_diameter": {
        "kilometers": {
            "estimated_diameter_min": 0.0366906138,
            "estimated_diameter_max": 0.0820427065
        },
        "meters": {
            "estimated_diameter_min": 36.6906137531,
            "estimated_diameter_max": 82.0427064882
        },
        "miles": {
            "estimated_diameter_min": 0.0227984834,
            "estimated_diameter_max": 0.0509789586
        },
        "feet": {
            "estimated_diameter_min": 120.3760332259,
            "estimated_diameter_max": 269.1689931548
        }
    },
    "is_potentially_hazardous_asteroid": false,
    "close_approach_data": [
        {
            "close_approach_date": "1931-09-09",
            "close_approach_date_full": "1931-Sep-09 02:36",
            "epoch_date_close_approach": -1209072240000,
            "relative_velocity": {
                "kilometers_per_second": "7.0164028777",
                "kilometers_per_hour": "25259.05035977",
                "miles_per_hour": "15694.9915971582"
            },
            "miss_distance": {
                "astronomical": "0.0234718626",
                "lunar": "9.1305545514",
                "kilometers": "3511340.649892662",
                "miles": "2181845.9063042556"
            },
            "orbiting_body": "Earth"
        },
        {
            "close_approach_date": "1972-10-23",
            "close_approach_date_full": "1972-Oct-23 14:24",
            "epoch_date_close_approach": 88698240000,
            "relative_velocity": {
                "kilometers_per_second": "19.3549306212",
                "kilometers_per_hour": "69677.7502362016",
                "miles_per_hour": "43295.0443064887"
            },
            "miss_distance": {
                "astronomical": "0.4099026223",
                "lunar": "159.4521200747",
                "kilometers": "61320559.203494501",
                "miles": "38102828.6374100738"
            },
            "orbiting_body": "Earth"
        },
        {
            "close_approach_date": "2010-09-15",
            "close_approach_date_full": "2010-Sep-15 14:28",
            "epoch_date_close_approach": 1284560880000,
            "relative_velocity": {
                "kilometers_per_second": "7.349190611",
                "kilometers_per_hour": "26457.0861994744",
                "miles_per_hour": "16439.4044776678"
            },
            "miss_distance": {
                "astronomical": "0.035328981",
                "lunar": "13.742973609",
                "kilometers": "5285140.30687047",
                "miles": "3284033.904013686"
            },
            "orbiting_body": "Earth"
        },
        {
            "close_approach_date": "2181-10-22",
            "close_approach_date_full": "2181-Oct-22 05:59",
            "epoch_date_close_approach": 6684011940000,
            "relative_velocity": {
                "kilometers_per_second": "16.3973452816",
                "kilometers_per_hour": "59030.4430136653",
                "miles_per_hour": "36679.2216603522"
            },
            "miss_distance": {
                "astronomical": "0.3121475062",
                "lunar": "121.4253799118",
                "kilometers": "46696602.053331794",
                "miles": "29015923.0297109972"
            },
            "orbiting_body": "Earth"
        }
    ],
    "orbital_data": {
        "orbit_id": "25",
        "orbit_determination_date": "2020-06-29 05:59:42",
        "first_observation_date": "2010-09-15",
        "last_observation_date": "2010-10-17",
        "data_arc_in_days": 32,
        "observations_used": 104,
        "orbit_uncertainty": "7",
        "minimum_orbit_intersection": ".0184957",
        "jupiter_tisserand_invariant": "3.507",
        "epoch_osculation": "2459000.5",
        "eccentricity": ".5248359972906201",
        "semi_major_axis": "2.158987533149326",
        "inclination": "1.017366751895864",
        "ascending_node_longitude": "359.9779656486975",
        "orbital_period": "1158.706994822391",
        "perihelion_distance": "1.025873158050884",
        "perihelion_argument": "339.6032226832166",
        "aphelion_distance": "3.292101908247768",
        "perihelion_time": "2458923.566072751460",
        "mean_anomaly": "23.90268975093213",
        "mean_motion": ".3106911424619316",
        "equinox": "J2000",
        "orbit_class": {
            "orbit_class_type": "AMO",
            "orbit_class_description": "Near-Earth asteroid orbits similar to that of 1221 Amor",
            "orbit_class_range": "1.017 AU < q (perihelion) < 1.3 AU"
        }
    },
    "is_sentry_object": false
}